{
  "type": "FeatureCollection",
  "features": [
    {
      "type": "Feature",
      "properties": {
        "norad_id": 43214,
        "name": "FENGYUN 1C DEB",
        "group": "fengyun-1c-debris",
        "lat": 35.815659713608746,
        "lon": 59.941161511694986,
        "alt_km": 842.7190460985703,
        "timestamp": "2025-12-27T16:33:30.513104+00:00",
        "meta_object_name": "FENGYUN 1C DEB",
        "meta_object_id": "1999-025EYN",
        "meta_epoch": "2025-12-26T21:50:23.447040",
        "meta_mean_motion": 14.24228621,
        "meta_eccentricity": 0.0056091,
        "meta_inclination": 98.7351,
        "meta_ra_of_asc_node": 65.5361,
        "meta_arg_of_pericenter": 186.7051,
        "meta_mean_anomaly": 173.3383,
        "meta_ephemeris_type": 0,
        "meta_classification_type": "U",
        "meta_norad_cat_id": 43214,
        "meta_element_set_no": 999,
        "meta_rev_at_epoch": 40605,
        "meta_bstar": 0.0018234,
        "meta_mean_motion_dot": 4.232e-05,
        "meta_mean_motion_ddot": 0,
        "tle_line1": "1 43214U 99025EYN 25360.90999360  .00004232  00000+0  18234-2 0  9990",
        "tle_line2": "2 43214  98.7351  65.5361 0056091 186.7051 173.3383 14.24228621406059"
      },
      "geometry": {
        "type": "Point",
        "coordinates": [
          59.941161511694986,
          35.815659713608746
        ]
      }
    },
    {
      "type": "Feature",
      "properties": {
        "norad_id": 43358,
        "name": "FENGYUN 1C DEB",
        "group": "fengyun-1c-debris",
        "lat": -46.204325021174334,
        "lon": 128.8054745024374,
        "alt_km": 1344.7251780414108,
        "timestamp": "2025-12-27T16:33:30.513114+00:00",
        "meta_object_name": "FENGYUN 1C DEB",
        "meta_object_id": "1999-025EYP",
        "meta_epoch": "2025-12-27T06:03:35.974080",
        "meta_mean_motion": 13.40418106,
        "meta_eccentricity": 0.0367365,
        "meta_inclination": 98.6872,
        "meta_ra_of_asc_node": 119.2542,
        "meta_arg_of_pericenter": 166.2835,
        "meta_mean_anomaly": 194.8612,
        "meta_ephemeris_type": 0,
        "meta_classification_type": "U",
        "meta_norad_cat_id": 43358,
        "meta_element_set_no": 999,
        "meta_rev_at_epoch": 53925,
        "meta_bstar": 0.0023197,
        "meta_mean_motion_dot": 1.853e-05,
        "meta_mean_motion_ddot": 0,
        "tle_line1": "1 43358U 99025EYP 25361.25249970  .00001853  00000+0  23197-2 0  9993",
        "tle_line2": "2 43358  98.6872 119.2542 0367365 166.2835 194.8612 13.40418106539253"
      },
      "geometry": {
        "type": "Point",
        "coordinates": [
          128.8054745024374,
          -46.204325021174334
        ]
      }
    },
    {
      "type": "Feature",
      "properties": {
        "norad_id": 43359,
        "name": "FENGYUN 1C DEB",
        "group": "fengyun-1c-debris",
        "lat": -64.22385460308796,
        "lon": -117.17698901926873,
        "alt_km": 816.699957528589,
        "timestamp": "2025-12-27T16:33:30.513125+00:00",
        "meta_object_name": "FENGYUN 1C DEB",
        "meta_object_id": "1999-025EYQ",
        "meta_epoch": "2025-12-25T04:21:01.480896",
        "meta_mean_motion": 14.23267674,
        "meta_eccentricity": 0.00734706,
        "meta_inclination": 99.052,
        "meta_ra_of_asc_node": 79.5201,
        "meta_arg_of_pericenter": 338.2051,
        "meta_mean_anomaly": 21.6005,
        "meta_ephemeris_type": 0,
        "meta_classification_type": "U",
        "meta_norad_cat_id": 43359,
        "meta_element_set_no": 999,
        "meta_rev_at_epoch": 47926,
        "meta_bstar": 0.0020431863,
        "meta_mean_motion_dot": 4.711e-05,
        "meta_mean_motion_ddot": 0,
        "tle_line1": "1 43359U 99025EYQ 25359.18126714  .00004711  00000+0  20432-2 0  9998",
        "tle_line2": "2 43359  99.0520  79.5201 0073470 338.2051  21.6005 14.23267674479262"
      },
      "geometry": {
        "type": "Point",
        "coordinates": [
          -117.17698901926873,
          -64.22385460308796
        ]
      }
    },
    {
      "type": "Feature",
      "properties": {
        "norad_id": 45526,
        "name": "FENGYUN 1C DEB",
        "group": "fengyun-1c-debris",
        "lat": 32.976728760247255,
        "lon": -100.413365678466,
        "alt_km": 769.964025608766,
        "timestamp": "2025-12-27T16:33:30.513135+00:00",
        "meta_object_name": "FENGYUN 1C DEB",
        "meta_object_id": "1999-025EYR",
        "meta_epoch": "2025-12-27T02:24:02.966112",
        "meta_mean_motion": 14.26058774,
        "meta_eccentricity": 0.0054915,
        "meta_inclination": 98.7614,
        "meta_ra_of_asc_node": 73.2542,
        "meta_arg_of_pericenter": 181.887,
        "meta_mean_anomaly": 178.2111,
        "meta_ephemeris_type": 0,
        "meta_classification_type": "U",
        "meta_norad_cat_id": 45526,
        "meta_element_set_no": 999,
        "meta_rev_at_epoch": 43581,
        "meta_bstar": 0.0020610484,
        "meta_mean_motion_dot": 4.961e-05,
        "meta_mean_motion_ddot": 0,
        "tle_line1": "1 45526U 99025EYR 25361.10003433  .00004961  00000+0  20610-2 0  9998",
        "tle_line2": "2 45526  98.7614  73.2542 0054915 181.8870 178.2111 14.26058774435815"
      },
      "geometry": {
        "type": "Point",
        "coordinates": [
          -100.413365678466,
          32.976728760247255
        ]
      }
    },
    {
      "type": "Feature",
      "properties": {
        "norad_id": 45527,
        "name": "FENGYUN 1C DEB",
        "group": "fengyun-1c-debris",
        "lat": 72.78914657732757,
        "lon": 38.46571395579426,
        "alt_km": 815.0182090034932,
        "timestamp": "2025-12-27T16:33:30.513145+00:00",
        "meta_object_name": "FENGYUN 1C DEB",
        "meta_object_id": "1999-025EYS",
        "meta_epoch": "2025-12-26T03:07:12.044928",
        "meta_mean_motion": 14.24597719,
        "meta_eccentricity": 0.0055822,
        "meta_inclination": 98.7379,
        "meta_ra_of_asc_node": 66.683,
        "meta_arg_of_pericenter": 187.7108,
        "meta_mean_anomaly": 172.3219,
        "meta_ephemeris_type": 0,
        "meta_classification_type": "U",
        "meta_norad_cat_id": 45527,
        "meta_element_set_no": 999,
        "meta_rev_at_epoch": 39770,
        "meta_bstar": 0.0015544085,
        "meta_mean_motion_dot": 3.626e-05,
        "meta_mean_motion_ddot": 0,
        "tle_line1": "1 45527U 99025EYS 25360.13000052  .00003626  00000+0  15544-2 0  9992",
        "tle_line2": "2 45527  98.7379  66.6830 0055822 187.7108 172.3219 14.24597719397701"
      },
      "geometry": {
        "type": "Point",
        "coordinates": [
          38.46571395579426,
          72.78914657732757
        ]
      }
    },
    {
      "type": "Feature",
      "properties": {
        "norad_id": 46440,
        "name": "FENGYUN 1C DEB",
        "group": "fengyun-1c-debris",
        "lat": -25.997992019218604,
        "lon": -155.9628385373752,
        "alt_km": 879.8293498553594,
        "timestamp": "2025-12-27T16:33:30.513155+00:00",
        "meta_object_name": "FENGYUN 1C DEB",
        "meta_object_id": "1999-025EYV",
        "meta_epoch": "2025-12-20T20:25:34.567392",
        "meta_mean_motion": 14.2032994,
        "meta_eccentricity": 0.01764773,
        "meta_inclination": 98.5919,
        "meta_ra_of_asc_node": 21.6185,
        "meta_arg_of_pericenter": 111.8963,
        "meta_mean_anomaly": 63.8759,
        "meta_ephemeris_type": 0,
        "meta_classification_type": "U",
        "meta_norad_cat_id": 46440,
        "meta_element_set_no": 999,
        "meta_rev_at_epoch": 62484,
        "meta_bstar": 0.00020023593,
        "meta_mean_motion_dot": 4.59e-06,
        "meta_mean_motion_ddot": 0,
        "tle_line1": "1 46440U 99025EYV 25354.85109453  .00000459  00000+0  20024-3 0  9995",
        "tle_line2": "2 46440  98.5919  21.6185 0176477 111.8963  63.8759 14.20329940624841"
      },
      "geometry": {
        "type": "Point",
        "coordinates": [
          -155.9628385373752,
          -25.997992019218604
        ]
      }
    },
    {
      "type": "Feature",
      "properties": {
        "norad_id": 46443,
        "name": "FENGYUN 1C DEB",
        "group": "fengyun-1c-debris",
        "lat": -70.679225493174,
        "lon": -138.62419744062248,
        "alt_km": 828.5081042971033,
        "timestamp": "2025-12-27T16:33:30.513165+00:00",
        "meta_object_name": "FENGYUN 1C DEB",
        "meta_object_id": "1999-025EYY",
        "meta_epoch": "2025-12-26T16:15:11.763936",
        "meta_mean_motion": 14.10922247,
        "meta_eccentricity": 0.00968734,
        "meta_inclination": 99.2139,
        "meta_ra_of_asc_node": 67.916,
        "meta_arg_of_pericenter": 316.3292,
        "meta_mean_anomaly": 196.4482,
        "meta_ephemeris_type": 0,
        "meta_classification_type": "U",
        "meta_norad_cat_id": 46443,
        "meta_element_set_no": 999,
        "meta_rev_at_epoch": 59792,
        "meta_bstar": 0.0016875708,
        "meta_mean_motion_dot": 3.117e-05,
        "meta_mean_motion_ddot": 0,
        "tle_line1": "1 46443U 99025EYY 25360.67721949  .00003117  00000+0  16876-2 0  9998",
        "tle_line2": "2 46443  99.2139  67.9160 0096873 316.3292 196.4482 14.10922247597922"
      },
      "geometry": {
        "type": "Point",
        "coordinates": [
          -138.62419744062248,
          -70.679225493174
        ]
      }
    }
  ]
}